GOES 1 [-]              
1 08366U 75100A   09187.40283713 -.00000246  00000-0  10000-3 0  8771
2 08366  14.3605 347.6771 0002596 248.0434 111.9480  1.00286917123145
GOES 2 [-]              
1 10061U 77048A   09185.63738524  .00000011  00000-0  10000-3 0  9058
2 10061  14.6535 356.1487 0016733 251.2609 108.5655  0.99398697 61976
GOES 3 [P]              
1 10953U 78062A   09187.49834199 -.00000122  00000-0  10000-3 0  5562
2 10953  14.3673 359.9395 0002564   9.4554 350.5698  1.00266052 66865
GOES 4 [-]              
1 11964U 80074A   09186.93878333 -.00000140  00000-0  10000-3 0  1338
2 11964  14.7230   3.6355 0035347 295.2537  64.3958  0.99228160 66214
GOES 5 [-]              
1 12472U 81049A   09186.46538847 -.00000262  00000-0  10000-3 0  1680
2 12472  13.7020  14.1431 0001328 180.2940 179.7222  1.00228550 60899
GOES 6 [-]              
1 14050U 83041A   09186.47364312 -.00000273  00000-0  10000-3 0  1696
2 14050  13.3626  19.2350 0001315  40.9084 319.1201  1.00271650153994
GOES 7 [-]              
1 17561U 87022A   09187.42344398  .00000054  00000-0  10000-3 0   265
2 17561  12.1431  37.0312 0003023 179.7770  43.7855  1.00286728 65104
GOES 8 [-]              
1 23051U 94022A   09186.74786282  .00000058  00000-0  10000-3 0  8532
2 23051   5.7970  73.3784 0005337 165.1796 194.6645  0.98903665 62904
GOES 9 [P]              
1 23581U 95025A   09187.04313685 -.00000225  00000-0  10000-3 0  1340
2 23581   5.3576  70.3782 0004970 323.0110  36.7792  0.98801904 51610
GOES 10 [+]             
1 24786U 97019A   09188.32338398 -.00000284  00000-0  10000-3 0  9919
2 24786   3.6834  74.3509 0002113  45.3701 221.9345  1.00278390 44709
GOES 11 [+]             
1 26352U 00022A   09188.24998679  .00000093  00000-0  10000-3 0  3914
2 26352   0.4316 262.7401 0002094 270.6697  66.3605  1.00269690 33609
GOES 12 [+]             
1 26871U 01031A   09188.36476079 -.00000248  00000-0  10000-3 0  1291
2 26871   0.0768  96.4092 0004792 350.9196 254.7567  1.00270868 29203
GOES 13 [S]             
1 29155U 06018A   09188.48995696 -.00000083  00000-0  10000-3 0  6655
2 29155   0.1129 231.7044 0001760 304.5833 180.1200  1.00271738 11450
GOES 14 [S]             
1 35491U 09033A   09188.90490122 -.00000245  00000-0  00000+0 0   228
2 35491   0.3515 257.3085 0071498 206.2105  57.2598  1.01370301   139
